{
  "type": "FeatureCollection",
  "features": [
    {
      "type": "Feature",
      "properties": {
        "tma_id": "EPKK-LTMA-EPKK",
        "icao": "EPKK",
        "tma": "EPKK LTMA",
        "sector": "EPKK",
        "name": "EPKK LTMA",
        "vertical": "LTMA",
        "class": "C",
        "vertical_bands": [
          {
            "floor": {
              "value": 2300,
              "unit": "FT",
              "ref": "AMSL"
            },
            "ceiling": {
              "value": 3500,
              "unit": "FT",
              "ref": "AMSL"
            }
          }
        ]
      },
      "geometry": {
        "type": "Polygon",
        "coordinates": [
          [
            [
              19.369722222222222,
              50.1675
            ],
            [
              19.33888888888889,
              50.06472222222222
            ],
            [
              19.390555555555554,
              49.90361111111111
            ],
            [
              19.460833333333333,
              49.86083333333333
            ],
            [
              20.203611111111112,
              49.973333333333336
            ],
            [
              20.346944444444443,
              50.03194444444444
            ],
            [
              20.348888888888887,
              50.05694444444444
            ],
            [
              20.353611111111114,
              50.123333333333335
            ],
            [
              20.353520117179684,
              50.127801662660005
            ],
            [
              20.353146898534376,
              50.132263737592794
            ],
            [
              20.35264587899741,
              50.136720634805044
            ],
            [
              20.352017192944558,
              50.14117084228767
            ],
            [
              20.351261018212142,
              50.145612849883776
            ],
            [
              20.35037757608481,
              50.1500451498029
            ],
            [
              20.349367131268203,
              50.15446623713514
            ],
            [
              20.348229991846637,
              50.1588746103647
            ],
            [
              20.34696650922563,
              50.16326877188298
            ],
            [
              20.345577078059303,
              50.16764722850082
            ],
            [
              20.34406213616256,
              50.17200849195985
            ],
            [
              20.342422164408077,
              50.17635107944262
            ],
            [
              20.340657686607987,
              50.180673514081484
            ],
            [
              20.338769269380276,
              50.184974325466
            ],
            [
              20.336757522000003,
              50.18925205014858
            ],
            [
              20.33462309623501,
              50.19350523214833
            ],
            [
              20.332366686166534,
              50.19773242345294
            ],
            [
              20.32998902799435,
              50.201932184518164
            ],
            [
              20.327490899826707,
              50.20610308476503
            ],
            [
              20.32487312145495,
              50.21024370307455
            ],
            [
              20.322136554112866,
              50.21435262827944
            ],
            [
              20.319282100220846,
              50.2184284596531
            ],
            [
              20.316310703114784,
              50.22246980739539
            ],
            [
              20.313223346759898,
              50.22647529311516
            ],
            [
              20.310021055449333,
              50.2304435503092
            ],
            [
              20.306704893487886,
              50.23437322483764
            ],
            [
              20.30327596486052,
              50.23826297539548
            ],
            [
              20.299735412886168,
              50.242111473980096
            ],
            [
              20.296084419856538,
              50.24591740635456
            ],
            [
              20.292324206660293,
              50.2496794725066
            ],
            [
              20.28845603239246,
              50.25339638710311
            ],
            [
              20.284481193949286,
              50.25706687993974
            ],
            [
              20.280401025608672,
              50.26068969638586
            ],
            [
              20.276216898596278,
              50.26426359782431
            ],
            [
              20.27193022063724,
              50.26778736208597
            ],
            [
              20.26754243549403,
              50.27125978387896
            ],
            [
              20.26305502249006,
              50.274679675212255
            ],
            [
              20.258469496019693,
              50.27804586581366
            ],
            [
              20.253787405044463,
              50.281357203541766
            ],
            [
              20.249010332575764,
              50.28461255479204
            ],
            [
              20.244139895144183,
              50.28781080489655
            ],
            [
              20.239177742255674,
              50.290950858517434
            ],
            [
              20.234125555834623,
              50.294031640033836
            ],
            [
              20.228985049654224,
              50.29705209392218
            ],
            [
              20.223757968754025,
              50.300011185129584
            ],
            [
              20.21844608884521,
              50.30290789944038
            ],
            [
              20.213051215703477,
              50.30574124383545
            ],
            [
              20.207575184549988,
              50.30851024684437
            ],
            [
              20.2020198594205,
              50.311213958890164
            ],
            [
              20.196387132522823,
              50.313851452626444
            ],
            [
              20.190678923583008,
              50.316421823266936
            ],
            [
              20.184897179180375,
              50.31892418890725
            ],
            [
              20.179043872071656,
              50.3213576908386
            ],
            [
              20.173121000504548,
              50.3237214938536
            ],
            [
              20.167130587520802,
              50.326014786543716
            ],
            [
              20.16107468024938,
              50.328236781588615
            ],
            [
              20.154955349189564,
              50.330386716036905
            ],
            [
              20.148774687484604,
              50.33246385157838
            ],
            [
              20.142534810186113,
              50.33446747480776
            ],
            [
              20.13623785350939,
              50.336396897479425
            ],
            [
              20.12988597408004,
              50.33825145675355
            ],
            [
              20.123481348172238,
              50.34003051543301
            ],
            [
              20.117026170938768,
              50.34173346219144
            ],
            [
              20.110522655633357,
              50.34335971179205
            ],
            [
              20.103973032825493,
              50.34490870529717
            ],
            [
              20.097379549607965,
              50.34637991026848
            ],
            [
              20.090744468797688,
              50.34777282095791
            ],
            [
              20.084070068129826,
              50.349086958488805
            ],
            [
              20.077358639445855,
              50.350321871027845
            ],
            [
              20.0706124878756,
              50.35147713394703
            ],
            [
              20.063833931013843,
              50.352552349976136
            ],
            [
              20.057025298091638,
              50.353547149345296
            ],
            [
              20.050188929142802,
              50.354461189917785
            ],
            [
              20.04332717416588,
              50.35529415731299
            ],
            [
              20.03638888888889,
              50.35583333333334
            ],
            [
              19.369722222222222,
              50.1675
            ]
          ]
        ]
      }
    },
    {
      "type": "Feature",
      "properties": {
        "tma_id": "EPKK-LTMA-B",
        "icao": "EPKK",
        "tma": "EPKK LTMA",
        "sector": "B",
        "name": "EPKK LTMA B",
        "vertical": "LTMA",
        "class": "C",
        "vertical_bands": [
          {
            "floor": {
              "value": 3500,
              "unit": "FT",
              "ref": "AMSL"
            },
            "ceiling": {
              "value": 95,
              "unit": "FL",
              "ref": "STD"
            }
          }
        ]
      },
      "geometry": {
        "type": "Polygon",
        "coordinates": [
          [
            [
              18.515555555555554,
              50.66916666666666
            ],
            [
              18.396666666666665,
              50.52111111111111
            ],
            [
              19.301111111111112,
              49.86666666666667
            ],
            [
              19.889444444444443,
              49.744166666666665
            ],
            [
              20.397222222222222,
              49.86555555555556
            ],
            [
              20.506944444444443,
              50.02222222222222
            ],
            [
              20.321944444444444,
              50.33777777777778
            ],
            [
              20.25611111111111,
              50.37694444444445
            ],
            [
              19.695,
              50.706944444444446
            ],
            [
              18.998611111111114,
              50.68611111111111
            ],
            [
              18.515555555555554,
              50.66916666666666
            ]
          ]
        ]
      }
    },
    {
      "type": "Feature",
      "properties": {
        "tma_id": "EPKK-LTMA-C",
        "icao": "EPKK",
        "tma": "EPKK LTMA",
        "sector": "C",
        "name": "EPKK LTMA C",
        "vertical": "LTMA",
        "class": "C",
        "vertical_bands": [
          {
            "floor": {
              "value": 5500,
              "unit": "FT",
              "ref": "AMSL"
            },
            "ceiling": {
              "value": 95,
              "unit": "FL",
              "ref": "STD"
            }
          }
        ]
      },
      "geometry": {
        "type": "Polygon",
        "coordinates": [
          [
            [
              18.494722222222222,
              50.71527777777778
            ],
            [
              18.411666666666665,
              50.65333333333333
            ],
            [
              18.247500000000002,
              50.52611111111111
            ],
            [
              18.191388888888888,
              50.46555555555556
            ],
            [
              18.53611111111111,
              50.21944444444445
            ],
            [
              19.015555555555554,
              49.87222222222222
            ],
            [
              19.301111111111112,
              49.86666666666667
            ],
            [
              18.396666666666665,
              50.52111111111111
            ],
            [
              18.515555555555554,
              50.66916666666666
            ],
            [
              19.695,
              50.706944444444446
            ],
            [
              20.25611111111111,
              50.37694444444445
            ],
            [
              20.344166666666666,
              50.5475
            ],
            [
              20.16777777777778,
              50.596944444444446
            ],
            [
              20.107222222222223,
              50.715
            ],
            [
              19.6975,
              50.825833333333335
            ],
            [
              19.50861111111111,
              50.809444444444445
            ],
            [
              19.11277777777778,
              50.77472222222222
            ],
            [
              18.494722222222222,
              50.71527777777778
            ]
          ]
        ]
      }
    },
    {
      "type": "Feature",
      "properties": {
        "tma_id": "EPKK-LTMA-D",
        "icao": "EPKK",
        "tma": "EPKK LTMA",
        "sector": "D",
        "name": "EPKK LTMA D",
        "vertical": "LTMA",
        "class": "C",
        "vertical_bands": [
          {
            "floor": {
              "value": 6500,
              "unit": "FT",
              "ref": "AMSL"
            },
            "ceiling": {
              "value": 95,
              "unit": "FL",
              "ref": "STD"
            }
          }
        ]
      },
      "geometry": {
        "type": "Polygon",
        "coordinates": [
          [
            [
              19.301111111111112,
              49.86666666666667
            ],
            [
              19.015555555555554,
              49.87222222222222
            ],
            [
              19.0825,
              49.823055555555555
            ],
            [
              19.148333333333333,
              49.848333333333336
            ],
            [
              19.191388888888888,
              49.852222222222224
            ],
            [
              19.259722222222223,
              49.844722222222224
            ],
            [
              19.39361111111111,
              49.79833333333333
            ],
            [
              19.488055555555558,
              49.72805555555556
            ],
            [
              19.91,
              49.677499999999995
            ],
            [
              20.541111111111114,
              49.844722222222224
            ],
            [
              20.706666666666667,
              50.10861111111111
            ],
            [
              20.47111111111111,
              50.51166666666666
            ],
            [
              20.344166666666666,
              50.5475
            ],
            [
              20.25611111111111,
              50.37694444444445
            ],
            [
              20.321944444444444,
              50.33777777777778
            ],
            [
              20.506944444444443,
              50.02222222222222
            ],
            [
              20.397222222222222,
              49.86555555555556
            ],
            [
              19.889444444444443,
              49.744166666666665
            ],
            [
              19.301111111111112,
              49.86666666666667
            ]
          ]
        ]
      }
    },
    {
      "type": "Feature",
      "properties": {
        "tma_id": "EPKK-UTMA-A",
        "icao": "EPKK",
        "tma": "EPKK UTMA",
        "sector": "A",
        "name": "EPKK UTMA A",
        "vertical": "UTMA",
        "class": "C",
        "vertical_bands": [
          {
            "floor": {
              "value": 95,
              "unit": "FL",
              "ref": "STD"
            },
            "ceiling": {
              "value": 245,
              "unit": "FL",
              "ref": "STD"
            }
          }
        ]
      },
      "geometry": {
        "type": "Polygon",
        "coordinates": [
          [
            [
              17.71222222222222,
              50.32277777777778
            ],
            [
              17.708680292842384,
              50.31993220670096
            ],
            [
              17.745277,
              50.301111
            ],
            [
              17.748055,
              50.209444
            ],
            [
              17.748055,
              50.205277
            ],
            [
              17.736666,
              50.202777
            ],
            [
              17.734444,
              50.202222
            ],
            [
              17.5925,
              50.159722
            ],
            [
              17.604166,
              50.153333
            ],
            [
              17.708055,
              50.096666
            ],
            [
              17.750833,
              50.073055
            ],
            [
              17.784722,
              50.02
            ],
            [
              17.865,
              49.976111
            ],
            [
              17.932222,
              49.990833
            ],
            [
              17.956944,
              50.003333
            ],
            [
              17.995555,
              50.030277
            ],
            [
              18.005,
              50.053333
            ],
            [
              18.096944,
              50.026666
            ],
            [
              18.118333,
              49.995555
            ],
            [
              18.161388,
              49.9825
            ],
            [
              18.181111,
              50.003333
            ],
            [
              18.201944,
              50.001666
            ],
            [
              18.211111,
              49.992222
            ],
            [
              18.218888,
              49.968611
            ],
            [
              18.275,
              49.962222
            ],
            [
              18.283333,
              49.933888
            ],
            [
              18.318333,
              49.9175
            ],
            [
              18.348055,
              49.929444
            ],
            [
              18.334444,
              49.944444
            ],
            [
              18.469166,
              49.910833
            ],
            [
              18.565555,
              49.880555
            ],
            [
              18.572777,
              49.8475
            ],
            [
              18.628888,
              49.720277
            ],
            [
              18.806388,
              49.665555
            ],
            [
              18.850833,
              49.516944
            ],
            [
              18.961944,
              49.511111
            ],
            [
              18.981388,
              49.390277
            ],
            [
              19.2,
              49.413611
            ],
            [
              19.259722,
              49.53
            ],
            [
              19.469444,
              49.611666
            ],
            [
              19.646666,
              49.455
            ],
            [
              19.636111,
              49.427777
            ],
            [
              19.791666,
              49.376388
            ],
            [
              19.799722,
              49.303611
            ],
            [
              19.851666,
              49.196388
            ],
            [
              20.0,
              49.222222
            ],
            [
              20.1,
              49.22
            ],
            [
              20.175277,
              49.313611
            ],
            [
              20.255277,
              49.349722
            ],
            [
              20.702222,
              49.4175
            ],
            [
              20.933055,
              49.291944
            ],
            [
              21.010277,
              49.336388
            ],
            [
              21.095555,
              49.3675
            ],
            [
              21.194951931706914,
              49.40688319857542
            ],
            [
              21.198888888888888,
              49.40277777777778
            ],
            [
              21.184166666666666,
              49.72944444444445
            ],
            [
              21.218888888888888,
              49.846944444444446
            ],
            [
              21.175833333333333,
              49.907777777777774
            ],
            [
              20.98638888888889,
              50.1725
            ],
            [
              20.47111111111111,
              50.51166666666666
            ],
            [
              20.344166666666666,
              50.5475
            ],
            [
              20.16777777777778,
              50.596944444444446
            ],
            [
              20.107222222222223,
              50.715
            ],
            [
              19.952222222222222,
              51.01555555555556
            ],
            [
              18.855,
              50.945277777777775
            ],
            [
              18.691111111111113,
              50.933611111111105
            ],
            [
              18.61416666666667,
              50.995
            ],
            [
              17.72472222222222,
              50.38944444444444
            ],
            [
              17.71222222222222,
              50.32277777777778
            ]
          ]
        ]
      }
    },
    {
      "type": "Feature",
      "properties": {
        "tma_id": "EPKT-LTMA-EPKT",
        "icao": "EPKT",
        "tma": "EPKT LTMA",
        "sector": "EPKT",
        "name": "EPKT LTMA",
        "vertical": "LTMA",
        "class": "C",
        "vertical_bands": [
          {
            "floor": {
              "value": 2300,
              "unit": "FT",
              "ref": "AMSL"
            },
            "ceiling": {
              "value": 3500,
              "unit": "FT",
              "ref": "AMSL"
            }
          }
        ]
      },
      "geometry": {
        "type": "Polygon",
        "coordinates": [
          [
            [
              18.63888888888889,
              50.635555555555555
            ],
            [
              18.50611111111111,
              50.44333333333333
            ],
            [
              18.571666666666665,
              50.39666666666667
            ],
            [
              19.195833333333333,
              50.31361111111111
            ],
            [
              19.298611111111114,
              50.30222222222222
            ],
            [
              19.305533641374524,
              50.30157718043331
            ],
            [
              19.31248719296973,
              50.30108523723383
            ],
            [
              19.319457984449503,
              50.30070686889664
            ],
            [
              19.32644151108834,
              50.30044231994283
            ],
            [
              19.333433260204426,
              50.300291761334165
            ],
            [
              19.340428713979257,
              50.30025529036615
            ],
            [
              19.34742335228009,
              50.30033293060729
            ],
            [
              19.354412655483575,
              50.30052463188434
            ],
            [
              19.361392107299185,
              50.30083027031367
            ],
            [
              19.368357197590775,
              50.30124964837867
            ],
            [
              19.375303425194904,
              50.30178249505327
            ],
            [
              19.382226300734278,
              50.302428465971325
            ],
            [
              19.389121349424894,
              50.303187143642006
            ],
            [
              19.3959841138753,
              50.30405803771079
            ],
            [
              19.402810156876495,
              50.305040585266205
            ],
            [
              19.40959506418096,
              50.30613415119198
            ],
            [
              19.41633444726926,
              50.307338028564445
            ],
            [
              19.4230239461028,
              50.30865143909493
            ],
            [
              19.42965923186112,
              50.3100735336171
            ],
            [
              19.436236009662274,
              50.31160339261878
            ],
            [
              19.442750021264843,
              50.31324002681791
            ],
            [
              19.44919704774997,
              50.3149823777826
            ],
            [
              19.455572912182024,
              50.316829318594706
            ],
            [
              19.461873482246325,
              50.318779654556685
            ],
            [
              19.46809467286252,
              50.32083212394123
            ],
            [
              19.47423244877199,
              50.32298539878342
            ],
            [
              19.480282827098,
              50.325238085714794
            ],
            [
              19.486241879876964,
              50.32758872683903
            ],
            [
              19.49210573655937,
              50.33003580064866
            ],
            [
              19.497870586479007,
              50.332577722982336
            ],
            [
              19.503532681288917,
              50.33521284802207
            ],
            [
              19.509088337362666,
              50.33793946933004
            ],
            [
              19.51453393815962,
              50.340755820924116
            ],
            [
              19.519865936552417,
              50.34366007839184
            ],
            [
              19.525080857115725,
              50.346650360041956
            ],
            [
              19.530175298374488,
              50.34972472809292
            ],
            [
              19.53514593501036,
              50.35288118989784
            ],
            [
              19.53998952002501,
              50.35611769920498
            ],
            [
              19.544702886858836,
              50.35943215745317
            ],
            [
              19.549282951463702,
              50.362822415101505
            ],
            [
              19.553726714328405,
              50.36628627299227
            ],
            [
              19.55803126245555,
              50.36982148374671
            ],
            [
              19.56219377128837,
              50.37342575319247
            ],
            [
              19.56621150658634,
              50.377096741822065
            ],
            [
              19.570081826248163,
              50.38083206628161
            ],
            [
              19.573802182080975,
              50.38462930088866
            ],
            [
              19.577370121514388,
              50.388485979178576
            ],
            [
              19.5807832892582,
              50.392399595478274
            ],
            [
              19.584039428902567,
              50.396367606506644
            ],
            [
              19.587136384459413,
              50.40038743300043
            ],
            [
              19.590072101843894,
              50.40445646136485
            ],
            [
              19.592844630294813,
              50.4085720453478
            ],
            [
              19.595452123732837,
              50.41273150773673
            ],
            [
              19.597892842055412,
              50.41693214207714
            ],
            [
              19.60016515236731,
              50.421171214411544
            ],
            [
              19.602267530145816,
              50.42544596503816
            ],
            [
              19.60419856033948,
              50.4297536102878
            ],
            [
              19.605956938399494,
              50.43409134431826
            ],
            [
              19.607541471242744,
              50.43845634092493
            ],
            [
              19.608951078145626,
              50.44284575536643
            ],
            [
              19.61018479156777,
              50.44725672620436
            ],
            [
              19.61124175790477,
              50.45168637715577
            ],
            [
              19.612121238169212,
              50.456131818957374
            ],
            [
              19.612822608599153,
              50.46059015124016
            ],
            [
              19.61334536119341,
              50.465058464413445
            ],
            [
              19.613689104172884,
              50.469533841556895
            ],
            [
              19.613853562367403,
              50.4740133603195
            ],
            [
              19.61383857752736,
              50.47849409482421
            ],
            [
              19.613644108559726,
              50.48297311757704
            ],
            [
              19.613270231687814,
              50.4874475013793
            ],
            [
              19.612717140534482,
              50.49191432124192
            ],
            [
              19.611985146128234,
              50.49637065630035
            ],
            [
              19.611074676831958,
              50.500813591728935
            ],
            [
              19.60998627819397,
              50.505240220653526
            ],
            [
              19.608720612721118,
              50.50964764606101
            ],
            [
              19.607278459573763,
              50.514032982704414
            ],
            [
              19.60566071418246,
              50.51839335900239
            ],
            [
              19.603868387786292,
              50.52272591893185
            ],
            [
              19.60190260689286,
              50.52702782391241
            ],
            [
              19.599764612659857,
              50.5312962546813
            ],
            [
              19.59745576019839,
              50.5355284131576
            ],
            [
              19.59497751779827,
              50.53972152429446
            ],
            [
              19.59233146607524,
              50.54387283791797
            ],
            [
              19.589519297040713,
              50.54797963055164
            ],
            [
              19.58654281309411,
              50.55203920722482
            ],
            [
              19.583403925938306,
              50.556048903264305
            ],
            [
              19.580104655418648,
              50.560006086067446
            ],
            [
              19.57664712828599,
              50.563908156855746
            ],
            [
              19.573033576884328,
              50.56775255240772
            ],
            [
              19.569266337763846,
              50.571536746769624
            ],
            [
              19.565347850219823,
              50.57525825294309
            ],
            [
              19.561280654758317,
              50.578914624548176
            ],
            [
              19.557067391489575,
              50.582503457460966
            ],
            [
              19.552710798449734,
              50.58602239142424
            ],
            [
              19.54821370985215,
              50.58946911163023
            ],
            [
              19.54357905426917,
              50.59284135027442
            ],
            [
              19.53880985274541,
              50.596136888078874
            ],
            [
              19.533909216843877,
              50.59935355578453
            ],
            [
              19.52888034662591,
              50.60248923561084
            ],
            [
              19.523726528566513,
              50.605541862682124
            ],
            [
              19.518451133406018,
              50.60850942641928
            ],
            [
              19.51305761393992,
              50.611389971896074
            ],
            [
              19.507549502748034,
              50.61418160115872
            ],
            [
              19.50193040986453,
              50.61688247450816
            ],
            [
              19.496204020390604,
              50.61949081174367
            ],
            [
              19.49037409205114,
              50.62200489336718
            ],
            [
              19.484444452697304,
              50.6244230617474
            ],
            [
              19.478418997756673,
              50.62674372224254
            ],
            [
              19.47230168763264,
              50.628965344281255
            ],
            [
              19.46609654505512,
              50.63108646240074
            ],
            [
              19.45980765238424,
              50.63310567724111
            ],
            [
              19.45343914886912,
              50.635021656495596
            ],
            [
              19.446995227863667,
              50.636833135815614
            ],
            [
              19.44048013400135,
              50.638538919670104
            ],
            [
              19.433898160331115,
              50.64013788215845
            ],
            [
              19.427253645416545,
              50.641628967776455
            ],
            [
              19.420550970400374,
              50.643011192134665
            ],
            [
              19.413794556036528,
              50.64428364262857
            ],
            [
              19.406988859692035,
              50.64544547906022
            ],
            [
              19.400138372320843,
              50.646495934210584
            ],
            [
              19.3932476154121,
              50.64743431436248
            ],
            [
              19.386321137914916,
              50.64825999977348
            ],
            [
              19.379363513142188,
              50.64897244509848
            ],
            [
              19.372379335655705,
              50.649571179761665
            ],
            [
              19.365373218134938,
              50.650055808277536
            ],
            [
              19.35834978823192,
              50.65042601052069
            ],
            [
              19.35131368541464,
              50.650681541944294
            ],
            [
              19.34426955780134,
              50.650822233747036
            ],
            [
              19.33722222222222,
              50.65083333333333
            ],
            [
              19.20861111111111,
              50.652499999999996
            ],
            [
              18.63888888888889,
              50.635555555555555
            ]
          ]
        ]
      }
    },
    {
      "type": "Feature",
      "properties": {
        "tma_id": "EPKK-UTMA-B",
        "icao": "EPKK",
        "tma": "EPKK UTMA",
        "sector": "B",
        "name": "EPKK UTMA B",
        "vertical": "UTMA",
        "class": "C",
        "vertical_bands": [
          {
            "floor": {
              "value": 245,
              "unit": "FL",
              "ref": "STD"
            },
            "ceiling": {
              "value": 285,
              "unit": "FL",
              "ref": "STD"
            }
          }
        ]
      },
      "geometry": {
        "type": "Polygon",
        "coordinates": [
          [
            [
              17.71222222222222,
              50.32277777777778
            ],
            [
              17.708680292842384,
              50.31993220670096
            ],
            [
              17.745277,
              50.301111
            ],
            [
              17.748055,
              50.209444
            ],
            [
              17.748055,
              50.205277
            ],
            [
              17.736666,
              50.202777
            ],
            [
              17.734444,
              50.202222
            ],
            [
              17.5925,
              50.159722
            ],
            [
              17.604166,
              50.153333
            ],
            [
              17.708055,
              50.096666
            ],
            [
              17.750833,
              50.073055
            ],
            [
              17.784722,
              50.02
            ],
            [
              17.865,
              49.976111
            ],
            [
              17.932222,
              49.990833
            ],
            [
              17.956944,
              50.003333
            ],
            [
              17.995555,
              50.030277
            ],
            [
              18.005,
              50.053333
            ],
            [
              18.096944,
              50.026666
            ],
            [
              18.118333,
              49.995555
            ],
            [
              18.161388,
              49.9825
            ],
            [
              18.181111,
              50.003333
            ],
            [
              18.201944,
              50.001666
            ],
            [
              18.211111,
              49.992222
            ],
            [
              18.218888,
              49.968611
            ],
            [
              18.275,
              49.962222
            ],
            [
              18.283333,
              49.933888
            ],
            [
              18.318333,
              49.9175
            ],
            [
              18.348055,
              49.929444
            ],
            [
              18.334444,
              49.944444
            ],
            [
              18.469166,
              49.910833
            ],
            [
              18.565555,
              49.880555
            ],
            [
              18.572777,
              49.8475
            ],
            [
              18.628888,
              49.720277
            ],
            [
              18.806388,
              49.665555
            ],
            [
              18.850833,
              49.516944
            ],
            [
              18.961944,
              49.511111
            ],
            [
              18.981388,
              49.390277
            ],
            [
              19.2,
              49.413611
            ],
            [
              19.259722,
              49.53
            ],
            [
              19.469444,
              49.611666
            ],
            [
              19.646666,
              49.455
            ],
            [
              19.636111,
              49.427777
            ],
            [
              19.791666,
              49.376388
            ],
            [
              19.799722,
              49.303611
            ],
            [
              19.851666,
              49.196388
            ],
            [
              20.0,
              49.222222
            ],
            [
              20.1,
              49.22
            ],
            [
              20.175277,
              49.313611
            ],
            [
              20.255277,
              49.349722
            ],
            [
              20.702222,
              49.4175
            ],
            [
              20.933055,
              49.291944
            ],
            [
              21.010277,
              49.336388
            ],
            [
              21.095555,
              49.3675
            ],
            [
              21.194951931706914,
              49.40688319857542
            ],
            [
              21.198888888888888,
              49.40277777777778
            ],
            [
              21.184166666666666,
              49.72944444444445
            ],
            [
              21.218888888888888,
              49.846944444444446
            ],
            [
              21.175833333333333,
              49.907777777777774
            ],
            [
              20.98638888888889,
              50.1725
            ],
            [
              20.25611111111111,
              50.37694444444445
            ],
            [
              19.695,
              50.706944444444446
            ],
            [
              18.998611111111114,
              50.68611111111111
            ],
            [
              18.691111111111113,
              50.933611111111105
            ],
            [
              18.61416666666667,
              50.995
            ],
            [
              17.72472222222222,
              50.38944444444444
            ],
            [
              17.71222222222222,
              50.32277777777778
            ]
          ]
        ]
      }
    },
    {
      "type": "Feature",
      "properties": {
        "tma_id": "EPKK-UTMA-C",
        "icao": "EPKK",
        "tma": "EPKK UTMA",
        "sector": "C",
        "name": "EPKK UTMA C",
        "vertical": "UTMA",
        "class": "C",
        "vertical_bands": [
          {
            "floor": {
              "value": 145,
              "unit": "FL",
              "ref": "STD"
            },
            "ceiling": {
              "value": 285,
              "unit": "FL",
              "ref": "STD"
            }
          }
        ]
      },
      "geometry": {
        "type": "Polygon",
        "coordinates": [
          [
            [
              20.98638888888889,
              50.1725
            ],
            [
              21.175833333333333,
              49.907777777777774
            ],
            [
              21.17527777777778,
              49.93
            ],
            [
              21.349166666666665,
              50.19944444444444
            ],
            [
              20.98638888888889,
              50.1725
            ]
          ]
        ]
      }
    }
  ]
}
